NORAD_CAT_ID,OBJECT_NAME,OBJECT_TYPE,EPOCH,MEAN_MOTION,ECCENTRICITY,INCLINATION,RA_OF_ASC_NODE,ARG_OF_PERICENTER,MEAN_ANOMALY,BSTAR,MEAN_MOTION_DOT,MEAN_MOTION_DDOT,TLE_LINE0,TLE_LINE1,TLE_LINE2,SEMIMAJOR_AXIS,PERIOD,APOGEE,PERIGEE,DECAYED
52580.0,STARLINK-3919,PAYLOAD,2023-11-01 12:39:07,15.08860473,0.0001407,53.2175,31.0604,89.683,270.4323,0.00083613,0.00013051,0.0,0 STARLINK-3919,1 52580U 22051AW  23305.52717563  .00013051  00000-0  83613-3 0  9993,2 52580  53.2175  31.0604 0001407  89.6830 270.4323 15.08860473 81748,6917.818,95.436,540.656,538.709,0.0
52580.0,STARLINK-3919,PAYLOAD,2023-11-02 12:29:54,15.08852083,0.0001402,53.218,26.5991,87.6283,272.487,0.0003463,5.23e-05,0.0,0 STARLINK-3919,1 52580U 22051AW  23306.52077440  .00005230  00000-0  34630-3 0  9992,2 52580  53.2180  26.5991 0001402  87.6283 272.4870 15.08852083 81890,6917.843,95.437,540.678,538.739,0.0
52580.0,STARLINK-3919,PAYLOAD,2023-11-02 22:02:13,15.08846635,0.0001337,53.2181,24.8155,90.0105,270.104,0.00013968,1.936e-05,0.0,0 STARLINK-3919,1 52580U 22051AW  23306.91821415  .00001936  00000-0  13968-3 0  9994,2 52580  53.2181  24.8155 0001337  90.0105 270.1040 15.08846635 81881,6917.86,95.437,540.65,538.8,0.0
52580.0,STARLINK-3919,PAYLOAD,2023-11-03 10:45:19,15.08836417,0.0001534,53.2181,22.4374,92.3611,267.7557,-0.00012658,-2.302e-05,0.0,0 STARLINK-3919,1 52580U 22051AW  23307.44813791 -.00002302  00000-0 -12658-3 0  9996,2 52580  53.2181  22.4374 0001534  92.3611 267.7557 15.08836417 82034,6917.891,95.438,540.818,538.695,0.0
52580.0,STARLINK-3919,PAYLOAD,2023-11-03 12:20:42,15.08840759,0.0001364,53.218,22.1419,85.3561,274.7587,-3.9034e-05,-9.09e-06,0.0,0 STARLINK-3919,1 52580U 22051AW  23307.51437591 -.00000909  00000-0 -39034-4 0  9993,2 52580  53.2180  22.1419 0001364  85.3561 274.7587 15.08840759 81974,6917.878,95.438,540.687,538.799,0.0
52580.0,STARLINK-3919,PAYLOAD,2023-11-04 12:11:30,15.08832826,0.0001548,53.2178,17.6795,80.501,279.6157,-3.2619e-05,-8.07e-06,0.0,0 STARLINK-3919,1 52580U 22051AW  23308.50798734 -.00000807  00000-0 -32619-4 0  9991,2 52580  53.2178  17.6795 0001548  80.5010 279.6157 15.08832826 82128,6917.902,95.438,540.838,538.696,0.0
52580.0,STARLINK-3919,PAYLOAD,2023-11-04 21:43:48,15.08843281,0.0001582,53.2188,15.8975,92.2518,267.8656,0.00018033,2.583e-05,0.0,0 STARLINK-3919,1 52580U 22051AW  23308.90542370  .00002583  00000-0  18033-3 0  9992,2 52580  53.2188  15.8975 0001582  92.2518 267.8656 15.08843281 82186,6917.87,95.437,540.83,538.641,0.0
52580.0,STARLINK-3919,PAYLOAD,2023-11-05 04:05:21,15.0884796,0.0001528,53.2177,14.7076,88.16,271.9567,0.00042513,6.486e-05,0.0,0 STARLINK-3919,1 52580U 22051AW  23309.17038424  .00006486  00000-0  42513-3 0  9998,2 52580  53.2177  14.7076 0001528  88.1600 271.9567 15.08847960 82297,6917.856,95.437,540.778,538.664,0.0
52580.0,STARLINK-3919,PAYLOAD,2023-11-05 12:02:16,15.08868994,0.0001529,53.2183,13.2184,86.269,273.8477,0.0011685,0.00018372,0.0,0 STARLINK-3919,1 52580U 22051AW  23309.50157619  .00018372  00000-0  11685-2 0  9995,2 52580  53.2183  13.2184 0001529  86.2690 273.8477 15.08868994 82344,6917.792,95.436,540.714,538.599,0.0
52580.0,STARLINK-3919,PAYLOAD,2023-11-05 21:34:34,15.08866548,0.0001574,53.2188,11.4353,102.1254,257.9915,0.00090537,0.00014161,0.0,0 STARLINK-3919,1 52580U 22051AW  23309.89901365  .00014161  00000-0  90537-3 0  9998,2 52580  53.2188  11.4353 0001574 102.1254 257.9915 15.08866548 82333,6917.799,95.436,540.753,538.575,0.0
52580.0,STARLINK-3919,PAYLOAD,2023-11-06 03:56:06,15.0886623,0.0001743,53.2173,10.2487,95.4212,264.6979,0.00035351,5.347e-05,0.0,0 STARLINK-3919,1 52580U 22051AW  23310.16396972  .00005347  00000-0  35351-3 0  9991,2 52580  53.2173  10.2487 0001743  95.4212 264.6979 15.08866230 82443,6917.8,95.436,540.871,538.459,0.0
52580.0,STARLINK-3919,PAYLOAD,2023-11-06 11:53:01,15.08883474,0.0001148,53.2174,8.7607,84.7731,275.3392,0.00097354,0.00015258,0.0,0 STARLINK-3919,1 52580U 22051AW  23310.49515994  .00015258  00000-0  97354-3 0  9997,2 52580  53.2174   8.7607 0001148  84.7731 275.3392 15.08883474 82421,6917.748,95.435,540.407,538.818,0.0
52580.0,STARLINK-3919,PAYLOAD,2023-11-06 21:25:22,15.08807471,0.0001503,53.2172,6.9768,87.0205,273.096,-0.0014099,-0.00022636,0.0,0 STARLINK-3919,1 52580U 22051AW  23310.89262057 -.00022636  00000-0 -14099-2 0  9994,2 52580  53.2172   6.9768 0001503  87.0205 273.0960 15.08807471 82489,6917.98,95.44,540.885,538.805,0.0
52580.0,STARLINK-3919,PAYLOAD,2023-11-07 03:46:55,15.08795036,0.0001508,53.2171,5.7876,88.4885,271.628,-0.00093497,-0.00015119,0.0,0 STARLINK-3919,1 52580U 22051AW  23311.15759068 -.00015119  00000-0 -93497-3 0  9995,2 52580  53.2171   5.7876 0001508  88.4885 271.6280 15.08795036 82593,6918.018,95.44,540.926,538.84,0.0
52580.0,STARLINK-3919,PAYLOAD,2023-11-07 10:08:29,15.08785593,0.0001496,53.2177,4.5974,94.0471,266.0692,0.0012546,0.00019706,0.0,0 STARLINK-3919,1 52580U 22051AW  23311.42256354  .00019706  00000-0  12546-2 0  9994,2 52580  53.2177   4.5974 0001496  94.0471 266.0692 15.08785593 82564,6918.047,95.441,540.947,538.877,0.0
52580.0,STARLINK-3919,PAYLOAD,2023-11-08 03:37:44,15.08851344,0.0001385,53.2177,1.3266,83.2698,276.8452,0.0020785,0.00032957,0.0,0 STARLINK-3919,1 52580U 22051AW  23312.15120928  .00032957  00000-0  20785-2 0  9999,2 52580  53.2177   1.3266 0001385  83.2698 276.8452 15.08851344 82742,6917.846,95.437,540.669,538.753,0.0
52580.0,STARLINK-3919,PAYLOAD,2023-11-08 09:59:16,15.08880215,0.0001456,53.2176,0.1368,84.9884,275.1274,0.0026559,0.00042281,0.0,0 STARLINK-3919,1 52580U 22051AW  23312.41616385  .00042281  00000-0  26559-2 0  9991,2 52580  53.2176   0.1368 0001456  84.9884 275.1274 15.08880215 82715,6917.757,95.435,540.63,538.615,0.0
52580.0,STARLINK-3919,PAYLOAD,2023-11-08 22:42:20,15.08876906,0.0002311,53.2189,357.759,126.4382,233.6823,0.001845,0.00029228,0.0,0 STARLINK-3919,1 52580U 22051AW  23312.94607330  .00029228  00000-0  18450-2 0  9996,2 52580  53.2189 357.7590 0002311 126.4382 233.6823 15.08876906 82860,6917.768,95.435,541.231,538.034,0.0
52580.0,STARLINK-3919,PAYLOAD,2023-11-09 09:50:02,15.08876233,0.0001465,53.2178,355.6762,91.8844,268.2316,0.0022855,0.0003631,0.0,0 STARLINK-3919,1 52580U 22051AW  23313.40974912  .00036310  00000-0  22855-2 0  9995,2 52580  53.2178 355.6762 0001465  91.8844 268.2316 15.08876233 82935,6917.77,95.435,540.648,538.621,0.0
52580.0,STARLINK-3919,PAYLOAD,2023-11-09 19:22:21,15.08854871,0.0001879,53.2178,353.8917,89.997,270.1237,0.0022261,0.00035333,0.0,0 STARLINK-3919,1 52580U 22051AW  23313.80718946  .00035333  00000-0  22261-2 0  9997,2 52580  53.2178 353.8917 0001879  89.9970 270.1237 15.08854871 82998,6917.835,95.437,541.0,538.4,0.0
52580.0,STARLINK-3919,PAYLOAD,2023-11-10 09:40:49,15.08841291,0.0001257,53.2179,351.2164,92.3352,267.7784,0.0015668,0.00024736,0.0,0 STARLINK-3919,1 52580U 22051AW  23314.40335144  .00024736  00000-0  15668-2 0  9997,2 52580  53.2179 351.2164 0001257  92.3352 267.7784 15.08841291 83089,6917.876,95.437,540.611,538.872,0.0
52580.0,STARLINK-3919,PAYLOAD,2023-11-10 19:13:08,15.08844903,0.0001476,53.2178,349.4335,94.343,265.7731,0.00048216,7.395e-05,0.0,0 STARLINK-3919,1 52580U 22051AW  23314.80079295  .00007395  00000-0  48216-3 0  9991,2 52580  53.2178 349.4335 0001476  94.3430 265.7731 15.08844903 83149,6917.865,95.437,540.751,538.709,0.0
52580.0,STARLINK-3919,PAYLOAD,2023-11-11 12:42:22,15.08857529,0.0001419,53.2174,346.1619,93.0799,267.0356,0.00078616,0.00012252,0.0,0 STARLINK-3919,1 52580U 22051AW  23315.52942872  .00012252  00000-0  78616-3 0  9996,2 52580  53.2174 346.1619 0001419  93.0799 267.0356 15.08857529 83185,6917.827,95.436,540.673,538.71,0.0
52580.0,STARLINK-3919,PAYLOAD,2023-11-11 19:03:55,15.08845492,0.0001727,53.2189,344.9703,83.4652,276.6537,0.00034712,5.242e-05,0.0,0 STARLINK-3919,1 52580U 22051AW  23315.79439116  .00005242  00000-0  34712-3 0  9997,2 52580  53.2189 344.9703 0001727  83.4652 276.6537 15.08845492 83299,6917.864,95.437,540.923,538.534,0.0
52580.0,STARLINK-3919,PAYLOAD,2023-11-12 09:22:23,15.08839636,0.0001636,53.2178,342.2954,79.5293,280.5883,5.3918e-05,5.7e-06,0.0,0 STARLINK-3919,1 52580U 22051AW  23316.39055275  .00000570  00000-0  53918-4 0  9993,2 52580  53.2178 342.2954 0001636  79.5293 280.5883 15.08839636 83383,6917.882,95.438,540.878,538.615,0.0
52580.0,STARLINK-3919,PAYLOAD,2023-11-12 18:54:42,15.0884641,0.0001471,53.2174,340.5127,87.0011,273.1149,0.00020654,3.001e-05,0.0,0 STARLINK-3919,1 52580U 22051AW  23316.78799066  .00003001  00000-0  20654-3 0  9991,2 52580  53.2174 340.5127 0001471  87.0011 273.1149 15.08846410 83371,6917.861,95.437,540.743,538.708,0.0
52580.0,STARLINK-3919,PAYLOAD,2023-11-13 10:48:33,15.08859693,0.0001617,53.2179,337.5385,84.9551,275.1625,0.00051347,7.898e-05,0.0,0 STARLINK-3919,1 52580U 22051AW  23317.45038493  .00007898  00000-0  51347-3 0  9997,2 52580  53.2179 337.5385 0001617  84.9551 275.1625 15.08859693 83542,6917.82,95.436,540.804,538.567,0.0
52580.0,STARLINK-3919,PAYLOAD,2023-11-13 18:45:29,15.08846823,0.000157,53.2181,336.0494,95.5481,264.5691,0.00021174,3.084e-05,0.0,0 STARLINK-3919,1 52580U 22051AW  23317.78158725  .00003084  00000-0  21174-3 0  9992,2 52580  53.2181 336.0494 0001570  95.5481 264.5691 15.08846823 83599,6917.86,95.437,540.811,538.638,0.0
52580.0,STARLINK-3919,PAYLOAD,2023-11-14 07:28:34,15.08844009,0.0001505,53.2169,333.6716,92.9185,267.198,0.00011852,1.599e-05,0.0,0 STARLINK-3919,1 52580U 22051AW  23318.31150774  .00001599  00000-0  11852-3 0  9999,2 52580  53.2169 333.6716 0001505  92.9185 267.1980 15.08844009 83601,6917.868,95.437,540.774,538.692,0.0
52580.0,STARLINK-3919,PAYLOAD,2023-11-15 04:08:35,15.08837245,0.0001522,53.2164,329.8048,95.9606,264.156,8.262e-06,-1.57e-06,0.0,0 STARLINK-3919,1 52580U 22051AW  23319.17263174 -.00000157  00000-0  82620-5 0  9996,2 52580  53.2164 329.8048 0001522  95.9606 264.1560 15.08837245 83808,6917.889,95.438,540.807,538.701,0.0
